start=new Date('2022-06-21T00:00:00.000Z').valueOf();
sats=[{"REV_AT_EPOCH":"130","OBJECT_NAME":"STARLINK-3608","MEAN_MOTION_DOT":"0.00027742","CLASSIFICATION_TYPE":"U","MEAN_ANOMALY":"213.8837","ECCENTRICITY":"0.00017480","ARG_OF_PERICENTER":"47.2745","TIME_SYSTEM":"UTC","DECAY_DATE":null,"RCS_SIZE":"LARGE","INCLINATION":"53.2132","ELEMENT_SET_NO":"999","PERIOD":"95.438","TLE_LINE1":"1 51776U 22017J   22171.91667824  .00027742  00000-0  17549-2 0  9994","COUNTRY_CODE":"US","BSTAR":"0.00175490000000","REF_FRAME":"TEME","EPOCH":"2022-06-20T22:00:00.999936","MEAN_ELEMENT_THEORY":"SGP4","NORAD_CAT_ID":"51776","RA_OF_ASC_NODE":"314.3962","MEAN_MOTION_DDOT":"0.0000000000000","LAUNCH_DATE":"2022-02-25","FILE":"3498404","MEAN_MOTION":"15.08827642","EPHEMERIS_TYPE":"0","OBJECT_TYPE":"PAYLOAD","CENTER_NAME":"EARTH","TLE_LINE2":"2 51776  53.2132 314.3962 0001748  47.2745 213.8837 15.08827642  1300","SITE":"AFWTR","PERIAPSIS":"538.574","OBJECT_ID":"2022-017J","SEMIMAJOR_AXIS":"6917.918","GP_ID":"206515480","APOAPSIS":"540.992"},{"CLASSIFICATION_TYPE":"U","MEAN_ANOMALY":"168.9853","ECCENTRICITY":"0.00016010","REV_AT_EPOCH":"130","OBJECT_NAME":"STARLINK-3625","MEAN_MOTION_DOT":"-0.00016860","TLE_LINE1":"1 51777U 22017K   22171.91667824 -.00016860  00000-0 -10435-2 0  9993","COUNTRY_CODE":"US","BSTAR":"-0.00104350000000","REF_FRAME":"TEME","ARG_OF_PERICENTER":"52.1633","TIME_SYSTEM":"UTC","DECAY_DATE":null,"RCS_SIZE":"LARGE","INCLINATION":"53.2138","ELEMENT_SET_NO":"999","PERIOD":"95.437","RA_OF_ASC_NODE":"314.3963","NORAD_CAT_ID":"51777","MEAN_MOTION_DDOT":"0.0000000000000","LAUNCH_DATE":"2022-02-25","MEAN_ELEMENT_THEORY":"SGP4","EPOCH":"2022-06-20T22:00:00.999936","SITE":"AFWTR","TLE_LINE2":"2 51777  53.2138 314.3963 0001601  52.1633 168.9853 15.08845958  1305","CENTER_NAME":"EARTH","PERIAPSIS":"538.620","OBJECT_ID":"2022-017K","SEMIMAJOR_AXIS":"6917.862","GP_ID":"206514243","APOAPSIS":"540.835","MEAN_MOTION":"15.08845958","FILE":"3498404","EPHEMERIS_TYPE":"0","OBJECT_TYPE":"PAYLOAD"},{"MEAN_MOTION_DDOT":"0.0000000000000","NORAD_CAT_ID":"51778","RA_OF_ASC_NODE":"304.4016","LAUNCH_DATE":"2022-02-25","MEAN_ELEMENT_THEORY":"SGP4","EPOCH":"2022-06-20T22:00:00.999936","PERIAPSIS":"538.628","CENTER_NAME":"EARTH","TLE_LINE2":"2 51778  53.2130 304.4016 0001550  64.3856  86.5382 15.08854645  1307","SITE":"AFWTR","APOAPSIS":"540.773","SEMIMAJOR_AXIS":"6917.836","GP_ID":"206514993","OBJECT_ID":"2022-017L","FILE":"3498404","MEAN_MOTION":"15.08854645","OBJECT_TYPE":"PAYLOAD","EPHEMERIS_TYPE":"0","MEAN_ANOMALY":"86.5382","ECCENTRICITY":"0.00015500","CLASSIFICATION_TYPE":"U","MEAN_MOTION_DOT":"-0.00002628","OBJECT_NAME":"STARLINK-3615","REV_AT_EPOCH":"130","TLE_LINE1":"1 51778U 22017L   22171.91667824 -.00002628  00000-0 -14704-3 0  9995","REF_FRAME":"TEME","BSTAR":"-0.00014704000000","COUNTRY_CODE":"US","DECAY_DATE":null,"TIME_SYSTEM":"UTC","ARG_OF_PERICENTER":"64.3856","PERIOD":"95.437","ELEMENT_SET_NO":"999","INCLINATION":"53.2130","RCS_SIZE":"LARGE"},{"OBJECT_TYPE":"PAYLOAD","EPHEMERIS_TYPE":"0","FILE":"3498404","MEAN_MOTION":"15.08835050","APOAPSIS":"541.023","SEMIMAJOR_AXIS":"6917.896","GP_ID":"206515737","OBJECT_ID":"2022-017M","PERIAPSIS":"538.498","CENTER_NAME":"EARTH","TLE_LINE2":"2 51779  53.2143 314.3857 0001825  45.4320 235.7176 15.08835050  1304","SITE":"AFWTR","MEAN_ELEMENT_THEORY":"SGP4","EPOCH":"2022-06-20T22:00:00.999936","LAUNCH_DATE":"2022-02-25","MEAN_MOTION_DDOT":"0.0000000000000","NORAD_CAT_ID":"51779","RA_OF_ASC_NODE":"314.3857","PERIOD":"95.438","ELEMENT_SET_NO":"999","INCLINATION":"53.2143","RCS_SIZE":"LARGE","DECAY_DATE":null,"TIME_SYSTEM":"UTC","ARG_OF_PERICENTER":"45.4320","REF_FRAME":"TEME","BSTAR":"0.00031122000000","COUNTRY_CODE":"US","TLE_LINE1":"1 51779U 22017M   22171.91667824  .00004668  00000-0  31122-3 0  9993","MEAN_MOTION_DOT":"0.00004668","OBJECT_NAME":"STARLINK-3611","REV_AT_EPOCH":"130","MEAN_ANOMALY":"235.7176","ECCENTRICITY":"0.00018250","CLASSIFICATION_TYPE":"U"},{"COUNTRY_CODE":"US","BSTAR":"0.00169150000000","REF_FRAME":"TEME","TLE_LINE1":"1 51780U 22017N   22171.91667824  .00026723  00000-0  16915-2 0  9993","RCS_SIZE":"LARGE","INCLINATION":"53.2178","ELEMENT_SET_NO":"999","PERIOD":"95.439","ARG_OF_PERICENTER":"32.8687","TIME_SYSTEM":"UTC","DECAY_DATE":null,"CLASSIFICATION_TYPE":"U","ECCENTRICITY":"0.00022740","MEAN_ANOMALY":"303.0857","REV_AT_EPOCH":"130","OBJECT_NAME":"STARLINK-3617","MEAN_MOTION_DOT":"0.00026723","OBJECT_ID":"2022-017N","SEMIMAJOR_AXIS":"6917.932","GP_ID":"206515981","APOAPSIS":"541.370","CENTER_NAME":"EARTH","TLE_LINE2":"2 51780  53.2178 314.3932 0002274  32.8687 303.0857 15.08823022  1304","SITE":"AFWTR","PERIAPSIS":"538.224","EPHEMERIS_TYPE":"0","OBJECT_TYPE":"PAYLOAD","MEAN_MOTION":"15.08823022","FILE":"3498404","LAUNCH_DATE":"2022-02-25","NORAD_CAT_ID":"51780","RA_OF_ASC_NODE":"314.3932","MEAN_MOTION_DDOT":"0.0000000000000","EPOCH":"2022-06-20T22:00:00.999936","MEAN_ELEMENT_THEORY":"SGP4"},{"TIME_SYSTEM":"UTC","ARG_OF_PERICENTER":"39.8217","DECAY_DATE":null,"INCLINATION":"53.2170","RCS_SIZE":"LARGE","PERIOD":"95.439","ELEMENT_SET_NO":"999","TLE_LINE1":"1 51781U 22017P   22171.91667824  .00026904  00000-0  17028-2 0  9991","BSTAR":"0.00170280000000","COUNTRY_CODE":"US","REF_FRAME":"TEME","REV_AT_EPOCH":"130","MEAN_MOTION_DOT":"0.00026904","OBJECT_NAME":"STARLINK-3580","MEAN_ANOMALY":"261.3178","ECCENTRICITY":"0.00016630","CLASSIFICATION_TYPE":"U","MEAN_MOTION":"15.08824179","FILE":"3498404","OBJECT_TYPE":"PAYLOAD","EPHEMERIS_TYPE":"0","PERIAPSIS":"538.643","TLE_LINE2":"2 51781  53.2170 314.3914 0001663  39.8217 261.3178 15.08824179  1300","SITE":"AFWTR","CENTER_NAME":"EARTH","SEMIMAJOR_AXIS":"6917.929","GP_ID":"206514744","OBJECT_ID":"2022-017P","APOAPSIS":"540.944","EPOCH":"2022-06-20T22:00:00.999936","MEAN_ELEMENT_THEORY":"SGP4","RA_OF_ASC_NODE":"314.3914","NORAD_CAT_ID":"51781","MEAN_MOTION_DDOT":"0.0000000000000","LAUNCH_DATE":"2022-02-25"},{"EPOCH":"2022-06-20T22:00:00.999936","MEAN_ELEMENT_THEORY":"SGP4","LAUNCH_DATE":"2022-02-25","NORAD_CAT_ID":"51782","RA_OF_ASC_NODE":"324.3990","MEAN_MOTION_DDOT":"0.0000000000000","EPHEMERIS_TYPE":"0","OBJECT_TYPE":"PAYLOAD","FILE":"3498404","MEAN_MOTION":"15.08815175","OBJECT_ID":"2022-017Q","SEMIMAJOR_AXIS":"6917.956","GP_ID":"206515494","APOAPSIS":"541.038","SITE":"AFWTR","TLE_LINE2":"2 51782  53.2151 324.3990 0001759  59.2887 146.8787 15.08815175  1309","CENTER_NAME":"EARTH","PERIAPSIS":"538.604","REV_AT_EPOCH":"130","OBJECT_NAME":"STARLINK-3616","MEAN_MOTION_DOT":"0.00044550","CLASSIFICATION_TYPE":"U","ECCENTRICITY":"0.00017590","MEAN_ANOMALY":"146.8787","RCS_SIZE":"LARGE","INCLINATION":"53.2151","ELEMENT_SET_NO":"999","PERIOD":"95.439","ARG_OF_PERICENTER":"59.2887","TIME_SYSTEM":"UTC","DECAY_DATE":null,"COUNTRY_CODE":"US","BSTAR":"0.00280150000000","REF_FRAME":"TEME","TLE_LINE1":"1 51782U 22017Q   22171.91667824  .00044550  00000-0  28015-2 0  9997"},{"CLASSIFICATION_TYPE":"U","MEAN_ANOMALY":"277.4869","ECCENTRICITY":"0.00018080","REV_AT_EPOCH":"130","OBJECT_NAME":"STARLINK-3628","MEAN_MOTION_DOT":"0.00026942","TLE_LINE1":"1 51783U 22017R   22171.91667824  .00026942  00000-0  17048-2 0  9997","COUNTRY_CODE":"US","BSTAR":"0.00170480000000","REF_FRAME":"TEME","ARG_OF_PERICENTER":"43.6687","TIME_SYSTEM":"UTC","DECAY_DATE":null,"RCS_SIZE":"LARGE","INCLINATION":"53.2167","ELEMENT_SET_NO":"999","PERIOD":"95.438","NORAD_CAT_ID":"51783","RA_OF_ASC_NODE":"314.3910","MEAN_MOTION_DDOT":"0.0000000000000","LAUNCH_DATE":"2022-02-25","MEAN_ELEMENT_THEORY":"SGP4","EPOCH":"2022-06-20T22:00:00.999936","SITE":"AFWTR","TLE_LINE2":"2 51783  53.2167 314.3910 0001808  43.6687 277.4869 15.08831662  1309","CENTER_NAME":"EARTH","PERIAPSIS":"538.520","OBJECT_ID":"2022-017R","SEMIMAJOR_AXIS":"6917.906","GP_ID":"206515237","APOAPSIS":"541.022","FILE":"3498404","MEAN_MOTION":"15.08831662","EPHEMERIS_TYPE":"0","OBJECT_TYPE":"PAYLOAD"},{"OBJECT_TYPE":"PAYLOAD","EPHEMERIS_TYPE":"0","FILE":"3498404","MEAN_MOTION":"15.08817425","GP_ID":"206515481","SEMIMAJOR_AXIS":"6917.949","OBJECT_ID":"2022-017S","APOAPSIS":"541.029","PERIAPSIS":"538.600","TLE_LINE2":"2 51784  53.2147 324.3979 0001756  47.7089 178.4660 15.08817425  1307","SITE":"AFWTR","CENTER_NAME":"EARTH","EPOCH":"2022-06-20T22:00:00.999936","MEAN_ELEMENT_THEORY":"SGP4","LAUNCH_DATE":"2022-02-25","NORAD_CAT_ID":"51784","RA_OF_ASC_NODE":"324.3979","MEAN_MOTION_DDOT":"0.0000000000000","INCLINATION":"53.2147","RCS_SIZE":"LARGE","PERIOD":"95.439","ELEMENT_SET_NO":"999","TIME_SYSTEM":"UTC","ARG_OF_PERICENTER":"47.7089","DECAY_DATE":null,"BSTAR":"0.00271370000000","COUNTRY_CODE":"US","REF_FRAME":"TEME","TLE_LINE1":"1 51784U 22017S   22171.91667824  .00043139  00000-0  27137-2 0  9995","REV_AT_EPOCH":"130","MEAN_MOTION_DOT":"0.00043139","OBJECT_NAME":"STARLINK-3632","MEAN_ANOMALY":"178.4660","ECCENTRICITY":"0.00017560","CLASSIFICATION_TYPE":"U"},{"MEAN_MOTION":"15.08846233","FILE":"3498404","EPHEMERIS_TYPE":"0","OBJECT_TYPE":"PAYLOAD","TLE_LINE2":"2 51785  53.2180 314.3946 0001664  45.4992 295.6342 15.08846233  1302","CENTER_NAME":"EARTH","SITE":"AFWTR","PERIAPSIS":"538.575","OBJECT_ID":"2022-017T","SEMIMAJOR_AXIS":"6917.861","GP_ID":"206514244","APOAPSIS":"540.877","MEAN_ELEMENT_THEORY":"SGP4","EPOCH":"2022-06-20T22:00:00.999936","RA_OF_ASC_NODE":"314.3946","NORAD_CAT_ID":"51785","MEAN_MOTION_DDOT":"0.0000000000000","LAUNCH_DATE":"2022-02-25","ARG_OF_PERICENTER":"45.4992","TIME_SYSTEM":"UTC","DECAY_DATE":null,"RCS_SIZE":"LARGE","INCLINATION":"53.2180","ELEMENT_SET_NO":"999","PERIOD":"95.437","TLE_LINE1":"1 51785U 22017T   22171.91667824 -.00018810  00000-0 -11666-2 0  9996","COUNTRY_CODE":"US","BSTAR":"-0.00116660000000","REF_FRAME":"TEME","REV_AT_EPOCH":"130","OBJECT_NAME":"STARLINK-3646","MEAN_MOTION_DOT":"-0.00018810","CLASSIFICATION_TYPE":"U","MEAN_ANOMALY":"295.6342","ECCENTRICITY":"0.00016640"}];
